STARLINK-37665          
1 69238U 26117A   26177.53780682 -.00820138  00000+0 -62015-2 0  9996
2 69238  53.1572 196.7484 0009924 111.1836 249.0245 15.73916375  4453
STARLINK-37558          
1 69239U 26117B   26177.53437436 -.00897014  00000+0 -60648-2 0  9990
2 69239  53.1576 196.7247 0001185  20.9926 339.1144 15.76794004  4458
STARLINK-37680          
1 69240U 26117C   26177.34110824  .00450856  00000+0  21217-2 0  9996
2 69240  53.1548 197.6502 0021322 188.5651 171.5011 15.81079026  4428
STARLINK-37742          
1 69241U 26117D   26177.34110639  .00155756  00000+0  96863-3 0  9992
2 69241  53.1580 197.6523 0000687  68.1990 291.9103 15.76005795  4423
STARLINK-37718          
1 69242U 26117E   26177.40284693 -.00855024  00000+0 -57317-2 0  9999
2 69242  53.1572 197.3253 0004984 353.5259   6.5697 15.76827164  4436
STARLINK-37735          
1 69243U 26117F   26177.66303300 -.00803334  00000+0 -70315-2 0  9995
2 69243  53.1583 196.1061 0004263  18.9782 341.1395 15.70551148  4473
STARLINK-37757          
1 69244U 26117G   26177.75001156 -.02636119  00000+0 -21453-1 0  9995
2 69244  53.1594 195.6063 0001253  79.7341  86.9985 15.73373475  5719
STARLINK-37767          
1 69245U 26117H   26177.75001156 -.02610820  00000+0 -19865-1 0  9991
2 69245  53.1593 195.5455 0001205  77.5161 118.6392 15.74876811  5725
STARLINK-35759          
1 69246U 26117J   26177.75001156 -.02600439  00000+0 -20485-1 0  9997
2 69246  53.1594 195.5156 0001152  89.8679 120.4551 15.74072106  5763
STARLINK-37238          
1 69247U 26117K   26177.75001156 -.02540786  00000+0 -33425-1 0  9994
2 69247  53.1595 195.7080 0001127  64.2776  51.0731 15.61590840  5721
STARLINK-37412          
1 69248U 26117L   26176.37526339  .00272369  00000+0  13416-2 0  9991
2 69248  53.1570 202.2846 0002809  20.2449 339.8684 15.80853152  4278
STARLINK-37398          
1 69249U 26117M   26177.65662201 -.00304728  00000+0 -20704-2 0  9998
2 69249  53.1574 196.0618 0005099  32.0697 328.0632 15.75051068  4475
STARLINK-37499          
1 69250U 26117N   26177.75001156 -.02663184  00000+0 -26689-1 0  9990
2 69250  53.1595 195.5271 0001143  77.0743 126.8713 15.68516944  5786
STARLINK-37489          
1 69251U 26117P   26177.75001156 -.02563617  00000+0 -28334-1 0  9990
2 69251  53.1594 195.5577 0001182  87.2480 101.9557 15.65987592  5787
STARLINK-37434          
1 69252U 26117Q   26177.75001156 -.02537169  00000+0 -42982-1 0  9999
2 69252  53.1595 195.8432 0000758  87.4346 320.9667 15.54331112  5721
STARLINK-37368          
1 69253U 26117R   26177.75001156 -.02400594  00000+0 -18429-1 0  9990
2 69253  53.1586 195.2678 0000856 102.2908 227.1276 15.74970325  5784
STARLINK-37517          
1 69254U 26117S   26176.55098760 -.00329961  00000+0 -17761-2 0  9990
2 69254  53.1561 201.2378 0001745 205.3788 154.7149 15.80334140  4309
STARLINK-37378          
1 69255U 26117T   26176.86577038 -.00368798  00000+0 -21297-2 0  9995
2 69255  53.1568 199.6463 0001397 210.8925 149.2015 15.78901149  4351
STARLINK-37396          
1 69256U 26117U   26177.62402904 -.00726626  00000+0 -49868-2 0  9992
2 69256  53.1571 195.8395 0001830 191.2045 168.8935 15.75992882  4477
STARLINK-37508          
1 69257U 26117V   26177.75001156 -.02644393  00000+0 -20500-1 0  9994
2 69257  53.1587 195.2965 0000687  87.1310 227.1900 15.74503449  5714
STARLINK-37276          
1 69258U 26117W   26177.75001156 -.00462332  00000+0 -87202-2 0  9997
2 69258  53.1595 195.5797 0001706  44.6087 127.8871 15.49583439  5714
STARLINK-37518          
1 69259U 26117X   26177.75001156 -.00623062  00000+0 -11947-1 0  9999
2 69259  53.1597 195.5942 0001532  48.2842 117.2210 15.49700267  5726
STARLINK-37478          
1 69260U 26117Y   26177.75001156  .00000032  00000+0  86504-5 0  9990
2 69260  53.1595 196.1473 0001929  84.6422 167.9998 15.49302965  5728
STARLINK-37506          
1 69261U 26117Z   26177.75001156  .00009932  00000+0  18650-3 0  9994
2 69261  53.1596 195.7339 0001261  80.8416  15.8946 15.49293943  5725
STARLINK-37503          
1 69262U 26117AA  26177.75001156 -.02600619  00000+0 -44841-1 0  9997
2 69262  53.1594 195.4305 0001253  87.9672 157.8142 15.53935763  5720
STARLINK-37502          
1 69263U 26117AB  26177.75001156  .00021213  00000+0  38894-3 0  9994
2 69263  53.1596 195.6247 0000919  45.6084 103.9242 15.49271670  5724
STARLINK-37486          
1 69264U 26117AC  26177.75001156 -.01253301  00000+0 -17206-1 0  9995
2 69264  53.1589 195.3810 0001147  84.4772 185.3044 15.59725856  5724
STARLINK-37435          
1 69265U 26117AD  26177.55718381 -.00258491  00000+0 -26195-2 0  9991
2 69265  53.1593 196.1238 0001322  16.2309 343.8749 15.65389922  4467
STARLINK-37464          
1 69266U 26117AE  26177.67257723 -.01069660  00000+0 -10885-1 0  9990
2 69266  53.1595 195.4184 0001875   6.5693 353.5348 15.67270288  4484
KUIPER-00282            
1 69267U 26118A   26177.73288072  .00034670  00000+0  10464-2 0  9994
2 69267  51.8597   7.6198 0013560 217.9316 142.0714 15.33865341  5443
